CCSDS_OMM_VERS = 2.0
CREATION_DATE  = 
ORIGINATOR     = 

OBJECT_NAME    = ENVISAT
OBJECT_ID      = 2002-009A
CENTER_NAME    = EARTH
REF_FRAME      = TEME
TIME_SYSTEM    = UTC
MEAN_ELEMENT_THEORY = SGP/SGP4

EPOCH          = 2025-12-02T21:27:06.891264
MEAN_MOTION    = 14.38993223
ECCENTRICITY   = .0001168
INCLINATION    = 98.3584
RA_OF_ASC_NODE = 287.8847
ARG_OF_PERICENTER = 81.8775
MEAN_ANOMALY   = 344.9574

EPHEMERIS_TYPE = 0
CLASSIFICATION_TYPE = U
NORAD_CAT_ID   = 27386
ELEMENT_SET_NO = 999
REV_AT_EPOCH   = 24525
BSTAR          = .77015E-4
MEAN_MOTION_DOT = .195E-5
MEAN_MOTION_DDOT = 0

CCSDS_OMM_VERS = 2.0
CREATION_DATE  = 
ORIGINATOR     = 

OBJECT_NAME    = IDEFIX & ARIANE 42P R/B
OBJECT_ID      = 2002-021B
CENTER_NAME    = EARTH
REF_FRAME      = TEME
TIME_SYSTEM    = UTC
MEAN_ELEMENT_THEORY = SGP/SGP4

EPOCH          = 2025-12-02T19:03:13.117248
MEAN_MOTION    = 14.30938175
ECCENTRICITY   = .001281
INCLINATION    = 98.5771
RA_OF_ASC_NODE = 271.6145
ARG_OF_PERICENTER = 110.4524
MEAN_ANOMALY   = 249.8036

EPHEMERIS_TYPE = 0
CLASSIFICATION_TYPE = U
NORAD_CAT_ID   = 27422
ELEMENT_SET_NO = 999
REV_AT_EPOCH   = 23016
BSTAR          = .18026E-3
MEAN_MOTION_DOT = .43E-5
MEAN_MOTION_DDOT = 0

CCSDS_OMM_VERS = 2.0
CREATION_DATE  = 
ORIGINATOR     = 

OBJECT_NAME    = AQUA
OBJECT_ID      = 2002-022A
CENTER_NAME    = EARTH
REF_FRAME      = TEME
TIME_SYSTEM    = UTC
MEAN_ELEMENT_THEORY = SGP/SGP4

EPOCH          = 2025-12-02T21:37:19.748064
MEAN_MOTION    = 14.61769935
ECCENTRICITY   = .0000733
INCLINATION    = 98.4023
RA_OF_ASC_NODE = 297.6211
ARG_OF_PERICENTER = 107.7415
MEAN_ANOMALY   = 312.2799

EPHEMERIS_TYPE = 0
CLASSIFICATION_TYPE = U
NORAD_CAT_ID   = 27424
ELEMENT_SET_NO = 999
REV_AT_EPOCH   = 25459
BSTAR          = .31293E-3
MEAN_MOTION_DOT = .1512E-4
MEAN_MOTION_DDOT = 0

CCSDS_OMM_VERS = 2.0
CREATION_DATE  = 
ORIGINATOR     = 

OBJECT_NAME    = CZ-4B R/B
OBJECT_ID      = 2002-024C
CENTER_NAME    = EARTH
REF_FRAME      = TEME
TIME_SYSTEM    = UTC
MEAN_ELEMENT_THEORY = SGP/SGP4

EPOCH          = 2025-12-02T18:02:56.364864
MEAN_MOTION    = 14.14524394
ECCENTRICITY   = .0049276
INCLINATION    = 98.9015
RA_OF_ASC_NODE = 25.5579
ARG_OF_PERICENTER = 298.8324
MEAN_ANOMALY   = 169.5913

EPHEMERIS_TYPE = 0
CLASSIFICATION_TYPE = U
NORAD_CAT_ID   = 27432
ELEMENT_SET_NO = 999
REV_AT_EPOCH   = 21553
BSTAR          = .66E-4
MEAN_MOTION_DOT = .83E-6
MEAN_MOTION_DDOT = 0

CCSDS_OMM_VERS = 2.0
CREATION_DATE  = 
ORIGINATOR     = 

OBJECT_NAME    = MIDORI II (ADEOS-II)
OBJECT_ID      = 2002-056A
CENTER_NAME    = EARTH
REF_FRAME      = TEME
TIME_SYSTEM    = UTC
MEAN_ELEMENT_THEORY = SGP/SGP4

EPOCH          = 2025-12-02T20:15:34.905600
MEAN_MOTION    = 14.29194757
ECCENTRICITY   = .0000346
INCLINATION    = 98.7620
RA_OF_ASC_NODE = 289.7493
ARG_OF_PERICENTER = 8.0429
MEAN_ANOMALY   = 352.0758

EPHEMERIS_TYPE = 0
CLASSIFICATION_TYPE = U
NORAD_CAT_ID   = 27597
ELEMENT_SET_NO = 999
REV_AT_EPOCH   = 19646
BSTAR          = .17788E-3
MEAN_MOTION_DOT = .407E-5
MEAN_MOTION_DDOT = 0

CCSDS_OMM_VERS = 2.0
CREATION_DATE  = 
ORIGINATOR     = 

OBJECT_NAME    = H-2A R/B
OBJECT_ID      = 2002-056E
CENTER_NAME    = EARTH
REF_FRAME      = TEME
TIME_SYSTEM    = UTC
MEAN_ELEMENT_THEORY = SGP/SGP4

EPOCH          = 2025-12-02T20:10:10.237728
MEAN_MOTION    = 14.33663229
ECCENTRICITY   = .0071502
INCLINATION    = 98.3051
RA_OF_ASC_NODE = 295.9923
ARG_OF_PERICENTER = 90.1666
MEAN_ANOMALY   = 332.5884

EPHEMERIS_TYPE = 0
CLASSIFICATION_TYPE = U
NORAD_CAT_ID   = 27601
ELEMENT_SET_NO = 999
REV_AT_EPOCH   = 20023
BSTAR          = .16967E-3
MEAN_MOTION_DOT = .443E-5
MEAN_MOTION_DDOT = 0

CCSDS_OMM_VERS = 2.0
CREATION_DATE  = 
ORIGINATOR     = 

OBJECT_NAME    = CZ-4B R/B
OBJECT_ID      = 2003-049C
CENTER_NAME    = EARTH
REF_FRAME      = TEME
TIME_SYSTEM    = UTC
MEAN_ELEMENT_THEORY = SGP/SGP4

EPOCH          = 2025-12-02T19:54:53.106048
MEAN_MOTION    = 14.54894741
ECCENTRICITY   = .0048478
INCLINATION    = 98.6780
RA_OF_ASC_NODE = 323.0198
ARG_OF_PERICENTER = 166.0004
MEAN_ANOMALY   = 194.2548

EPHEMERIS_TYPE = 0
CLASSIFICATION_TYPE = U
NORAD_CAT_ID   = 28059
ELEMENT_SET_NO = 999
REV_AT_EPOCH   = 17251
BSTAR          = .13829E-3
MEAN_MOTION_DOT = .552E-5
MEAN_MOTION_DDOT = 0

CCSDS_OMM_VERS = 2.0
CREATION_DATE  = 
ORIGINATOR     = 

OBJECT_NAME    = CZ-2C R/B
OBJECT_ID      = 2004-012C
CENTER_NAME    = EARTH
REF_FRAME      = TEME
TIME_SYSTEM    = UTC
MEAN_ELEMENT_THEORY = SGP/SGP4

EPOCH          = 2025-12-02T19:54:39.270816
MEAN_MOTION    = 15.54505006
ECCENTRICITY   = .0017059
INCLINATION    = 97.7446
RA_OF_ASC_NODE = 28.6395
ARG_OF_PERICENTER = 309.1072
MEAN_ANOMALY   = 50.8663

EPHEMERIS_TYPE = 0
CLASSIFICATION_TYPE = U
NORAD_CAT_ID   = 28222
ELEMENT_SET_NO = 999
REV_AT_EPOCH   = 18918
BSTAR          = .66643E-3
MEAN_MOTION_DOT = .44224E-3
MEAN_MOTION_DDOT = 0

CCSDS_OMM_VERS = 2.0
CREATION_DATE  = 
ORIGINATOR     = 

OBJECT_NAME    = SL-16 R/B
OBJECT_ID      = 2004-021B
CENTER_NAME    = EARTH
REF_FRAME      = TEME
TIME_SYSTEM    = UTC
MEAN_ELEMENT_THEORY = SGP/SGP4

EPOCH          = 2025-12-02T17:19:10.298208
MEAN_MOTION    = 14.14582478
ECCENTRICITY   = .0005818
INCLINATION    = 71.0022
RA_OF_ASC_NODE = 75.9874
ARG_OF_PERICENTER = 213.5670
MEAN_ANOMALY   = 146.5085

EPHEMERIS_TYPE = 0
CLASSIFICATION_TYPE = U
NORAD_CAT_ID   = 28353
ELEMENT_SET_NO = 999
REV_AT_EPOCH   = 10912
BSTAR          = -.26645E-4
MEAN_MOTION_DOT = -.99E-6
MEAN_MOTION_DDOT = 0

CCSDS_OMM_VERS = 2.0
CREATION_DATE  = 
ORIGINATOR     = 

OBJECT_NAME    = CZ-4B R/B
OBJECT_ID      = 2004-035C
CENTER_NAME    = EARTH
REF_FRAME      = TEME
TIME_SYSTEM    = UTC
MEAN_ELEMENT_THEORY = SGP/SGP4

EPOCH          = 2025-12-02T16:01:49.623744
MEAN_MOTION    = 15.27119391
ECCENTRICITY   = .0032251
INCLINATION    = 97.3624
RA_OF_ASC_NODE = 7.1482
ARG_OF_PERICENTER = 314.8803
MEAN_ANOMALY   = 44.9817

EPHEMERIS_TYPE = 0
CLASSIFICATION_TYPE = U
NORAD_CAT_ID   = 28415
ELEMENT_SET_NO = 999
REV_AT_EPOCH   = 16509
BSTAR          = .38102E-3
MEAN_MOTION_DOT = .10216E-3
MEAN_MOTION_DDOT = 0

CCSDS_OMM_VERS = 2.0
CREATION_DATE  = 
ORIGINATOR     = 

OBJECT_NAME    = CZ-2C R/B
OBJECT_ID      = 2004-046B
CENTER_NAME    = EARTH
REF_FRAME      = TEME
TIME_SYSTEM    = UTC
MEAN_ELEMENT_THEORY = SGP/SGP4

EPOCH          = 2025-12-02T18:59:49.735104
MEAN_MOTION    = 14.26933533
ECCENTRICITY   = .0140696
INCLINATION    = 98.1981
RA_OF_ASC_NODE = 252.7882
ARG_OF_PERICENTER = 81.4914
MEAN_ANOMALY   = 280.2184

EPHEMERIS_TYPE = 0
CLASSIFICATION_TYPE = U
NORAD_CAT_ID   = 28480
ELEMENT_SET_NO = 999
REV_AT_EPOCH   = 9468
BSTAR          = .10785E-3
MEAN_MOTION_DOT = .251E-5
MEAN_MOTION_DDOT = 0

CCSDS_OMM_VERS = 2.0
CREATION_DATE  = 
ORIGINATOR     = 

OBJECT_NAME    = ARIANE 5 R/B
OBJECT_ID      = 2004-049H
CENTER_NAME    = EARTH
REF_FRAME      = TEME
TIME_SYSTEM    = UTC
MEAN_ELEMENT_THEORY = SGP/SGP4

EPOCH          = 2025-12-02T09:51:20.411424
MEAN_MOTION    = 14.84973702
ECCENTRICITY   = .0083631
INCLINATION    = 98.2519
RA_OF_ASC_NODE = 136.3219
ARG_OF_PERICENTER = 306.8914
MEAN_ANOMALY   = 52.4655

EPHEMERIS_TYPE = 0
CLASSIFICATION_TYPE = U
NORAD_CAT_ID   = 28499
ELEMENT_SET_NO = 999
REV_AT_EPOCH   = 13135
BSTAR          = .15675E-3
MEAN_MOTION_DOT = .1356E-4
MEAN_MOTION_DDOT = 0

