ENVISAT                 
1 27386U 02009A   25336.89382976  .00000195  00000+0  77015-4 0  9996
2 27386  98.3584 287.8847 0001168  81.8775 344.9574 14.38993223245259
IDEFIX & ARIANE 42P R/B 
1 27422U 02021B   25336.79390182  .00000430  00000+0  18026-3 0  9996
2 27422  98.5771 271.6145 0012810 110.4524 249.8036 14.30938175230166
AQUA                    
1 27424U 02022A   25336.90092301  .00001512  00000+0  31293-3 0  9997
2 27424  98.4023 297.6211 0000733 107.7415 312.2799 14.61769935254592
CZ-4B R/B               
1 27432U 02024C   25336.75204126  .00000083  00000+0  66000-4 0  9998
2 27432  98.9015  25.5579 0049276 298.8324 169.5913 14.14524394215536
MIDORI II (ADEOS-II)    
1 27597U 02056A   25336.84415400  .00000407  00000+0  17788-3 0  9992
2 27597  98.7620 289.7493 0000346   8.0429 352.0758 14.29194757196467
H-2A R/B                
1 27601U 02056E   25336.84039627  .00000443  00000+0  16967-3 0  9999
2 27601  98.3051 295.9923 0071502  90.1666 332.5884 14.33663229200235
CZ-4B R/B               
1 28059U 03049C   25336.82978132  .00000552  00000+0  13829-3 0  9996
2 28059  98.6780 323.0198 0048478 166.0004 194.2548 14.54894741172514
CZ-2C R/B               
1 28222U 04012C   25336.82962119  .00044224  00000+0  66643-3 0  9993
2 28222  97.7446  28.6395 0017059 309.1072  50.8663 15.54505006189188
SL-16 R/B               
1 28353U 04021B   25336.72164697 -.00000099  00000+0 -26645-4 0  9995
2 28353  71.0022  75.9874 0005818 213.5670 146.5085 14.14582478109127
CZ-4B R/B               
1 28415U 04035C   25336.66793546  .00010216  00000+0  38102-3 0  9993
2 28415  97.3624   7.1482 0032251 314.8803  44.9817 15.27119391165098
CZ-2C R/B               
1 28480U 04046B   25336.79154786  .00000251  00000+0  10785-3 0  9993
2 28480  98.1981 252.7882 0140696  81.4914 280.2184 14.26933533 94688
ARIANE 5 R/B            
1 28499U 04049H   25336.41065291  .00001356  00000+0  15675-3 0  9997
2 28499  98.2519 136.3219 0083631 306.8914  52.4655 14.84973702131350
